AALTO-1                 
1 42775U 17036L   24124.04461171  .00063168  00000+0  78972-3 0  9998
2 42775  97.1108 153.3671 0004422  40.2633 319.8951 15.59617800382055
URSA MAIOR              
1 42776U 17036M   24124.57355357  .00109455  00000+0  82613-3 0  9992
2 42776  97.1062 157.4052 0001392  43.8626 316.2749 15.72137183382352
CICERO 6                
1 42793U 17036AE  24124.09036654  .00234196  00000+0  13275-2 0  9992
2 42793  97.0919 161.1918 0000877 114.5209 245.6150 15.78405571382664
CORVUS BC2              
1 42846U 17042X   24124.48713535  .00003876  00000+0  33918-3 0  9997
2 42846  97.3764 312.0948 0007657 198.9058 161.1881 14.97247518370750
CORVUS BC1              
1 42847U 17042Y   24123.78448583  .00003731  00000+0  32548-3 0  9996
2 42847  97.3738 311.8273 0007869 202.9045 157.1828 14.97383014370665
MIRATA                  
1 43015U 17073C   24124.57937814  .00018552  00000+0  90975-3 0  9991
2 43015  97.6009   9.8932 0177238  53.5734 308.1688 15.05355683349610
MAKERSAT 0              
1 43016U 17073D   24124.19203906  .00015190  00000+0  88004-3 0  9993
2 43016  97.5875   4.4532 0201692  73.9852 288.3482 14.96660429349175
CORVUS BC3              
1 43118U 18004H   24124.19601480  .00205074  00000+0  12562-2 0  9997
2 43118  97.2859 208.6689 0000855 344.3550  15.7689 15.76726368351804
GOMX-4B                 
1 43196U 18015E   24124.42028604  .00052311  00000+0  69782-3 0  9993
2 43196  97.6065 294.7986 0008554 125.2336 234.9721 15.57903992348549
GOMX-4A                 
1 43197U 18015F   24124.51518926  .00057813  00000+0  55311-3 0  9990
2 43197  97.5978 299.3391 0006690 118.1459 242.0478 15.66502180348867
CICERO 10               
1 43690U 18088A   24124.52292134  .00081983  00000+0  74488-3 0  9990
2 43690  85.0170 211.3771 0005843 127.4962 232.6837 15.67684558305169
PROXIMA I               
1 43694U 18088E   24124.49599338  .00453331  80167-4  12057-2 0  9996
2 43694  85.0032 204.3196 0003517 258.8402 101.2483 15.94568672305680
PROXIMA II              
1 43696U 18088G   24124.21979256  .00446615  74797-4  13764-2 0  9994
2 43696  85.0051 204.7222 0003340 261.1233  98.9668 15.91741258305621
SIRION PATHFINDER-2     
1 43759U 18099B   24124.13990663  .00004324  00000+0  33255-3 0  9998
2 43759  97.5339 181.5652 0014455  84.8503 275.4372 15.02136686295746
CORVUS BC4              
1 43767U 18099K   24124.15346628  .00004731  00000+0  36998-3 0  9994
2 43767  97.5203 178.9165 0010184 144.1328 216.0582 15.01489612295635
MOVE-II                 
1 43780U 18099Y   24124.17350127  .00016794  00000+0  93481-3 0  9992
2 43780  97.5251 187.6388 0008714 132.0877 228.1097 15.13680437296118
SPACEBEE-7              
1 43816U 18099BL  24123.11022330  .00012486  00000+0  76930-3 0  9991
2 43816  97.5520 187.4111 0011653  91.0666 269.1899 15.10052529295458
SPACEBEE-6              
1 43818U 18099BN  24123.45158743  .00027296  00000+0  12675-2 0  9998
2 43818  97.5441 192.3796 0009839  97.4561 262.7792 15.19940565295954
SHIELDS 1               
1 43850U 18104B   24123.55069619  .00011828  00000+0  33354-3 0  9997
2 43850  85.0217 314.0625 0009447 236.6116 123.4230 15.36220509299159
SONATE                  
1 44400U 19038Q   24123.90785310  .00018493  00000+0  59854-3 0  9996
2 44400  97.7133 116.0565 0014082 264.1495  95.8140 15.32005610267144
LUCKY-7                 
1 44406U 19038W   24124.53582033  .00027716  00000+0  68597-3 0  9991
2 44406  97.7042 120.2156 0011441 240.0409 119.9700 15.40342835267485
BEESAT 9                
1 44412U 19038AC  24124.45859928  .00244252  00000+0  15491-2 0  9999
2 44412  97.6788 128.2897 0009131 179.2497 180.8783 15.75772742267740
JAISAT-1                
1 44419U 19038F   24123.99028375  .00222873  00000+0  15666-2 0  9997
2 44419  97.6780 128.7410 0008438 179.1222 181.0057 15.73447153268043
DUCHIFAT-3              
1 44854U 19089C   24124.26237073  .00014919  00000+0  79140-3 0  9992
2 44854  36.9587 321.4548 0006791  64.3592 295.7855 15.14707627241383
M2 PATHFINDER           
1 45727U 20037E   24124.46770666  .00002868  00000+0  25594-3 0  9993
2 45727  97.7754 301.1569 0010208 273.7749  86.2305 14.96723063209254
NETSAT-4                
1 46504U 20068U   24124.14908377  .00009742  00000+0  53874-3 0  9998
2 46504  97.8029  80.1185 0011365 146.0249 214.1712 15.14037979197350
NETSAT-3                
1 46505U 20068V   24123.58865513  .00008675  00000+0  48726-3 0  9994
2 46505  97.7998  79.1068 0010299 154.5215 205.6526 15.13529383197267
NETSAT-1                
1 46506U 20068W   24124.45214844  .00007107  00000+0  41602-3 0  9992
2 46506  97.8021  79.5609 0008707 160.4824 199.6740 15.12122849197360
NETSAT-2                
1 46507U 20068X   24124.36183614  .00011269  00000+0  62433-3 0  9992
2 46507  97.8008  79.9835 0007902 164.0072 196.1409 15.13961253197334
WILDTRACKCUBE-SIMBA     
1 47941U 21022K   24124.56174683  .00011691  00000+0  54493-3 0  9990
2 47941  97.4656  21.7620 0013888 305.3682  54.6254 15.19955938171681
BEESAT-6                
1 47957U 21022AB  24123.69850307  .00145611  00000+0  22904-2 0  9995
2 47957  97.4462  29.8047 0003394 225.9319 134.1654 15.53086653171966
SMOG-1                  
1 47964U 21022AJ  24124.31700452  .00099497  00000+0  16130-2 0  9992
2 47964  97.4678  33.5270 0005298 209.5958 150.4995 15.52406802171246
BCCSAT-1                
1 48041U 21022AK  24124.18881713  .00057618  00000+0  13585-2 0  9994
2 48041  97.4671  30.0561 0004710 234.0872 125.9938 15.41700752170980
BEESAT-5                
1 48083U 21022AM  24122.99959995  .00166483  00000+0  19617-2 0  9998
2 48083  97.4192  30.1323 0003747 186.0391 174.0822 15.60817800171108
BEESAT-7                
1 48084U 21022AN  24124.54352778  .00060803  00000+0  11091-2 0  9995
2 48084  97.4627  30.9001 0005056 236.6831 123.3936 15.49226996170827
BEESAT-8                
1 48085U 21022AP  24124.19546567  .00028470  00000+0  99145-3 0  9999
2 48085  97.4789  25.9010 0009792 288.9791  71.0388 15.29590327170995
LEDSAT                  
1 49069U 21073D   24124.47264048  .00017962  00000+0  76076-3 0  9992
2 49069  97.4399 195.9536 0021048  83.7052 276.6581 15.23013585149641
SITRO-AIS 5 (KATYS)     
1 57176U 23091L   24124.56949016  .00007499  00000+0  49582-3 0  9993
2 57176  97.6164 177.1542 0016575 273.0795  86.8536 15.07556099 46772
SITRO-AIS 6 (CHIRKIN)   
1 57192U 23091AC  24124.49007428  .00007522  00000+0  49652-3 0  9990
2 57192  97.6170 177.0973 0016293 273.2728  86.6635 15.07620186 46765
SITRO-AIS 8 (ANOKHIN)   
1 57193U 23091AD  24124.53290739  .00007206  00000+0  47269-3 0  9996
2 57193  97.6170 177.1876 0015683 273.9909  85.9527 15.07877499 46773
SITRO-AIS 7 (FARTUSHNIY)
1 57194U 23091AE  24124.49383835  .00007996  00000+0  52814-3 0  9990
2 57194  97.6166 177.0867 0016213 273.8183  86.1191 15.07578846 46764
SITRO-AIS 10 (BURDAEV)  
1 57199U 23091AK  24124.55555245  .00008502  00000+0  53209-3 0  9991
2 57199  97.6184 177.9809 0011144 260.2734  99.7236 15.09598707 46821
SITRO-AIS 9 (SHCHUKIN)  
1 57201U 23091AM  24124.48719095  .00008364  00000+0  52372-3 0  9998
2 57201  97.6180 177.8976 0011069 260.4278  99.5700 15.09586633 46814
SITRO-AIS 12 (SMIRENNIY)
1 57204U 23091AQ  24124.52144769  .00007384  00000+0  46059-3 0  9992
2 57204  97.6183 178.0451 0011068 253.5958 106.4054 15.09766647 46824
SITRO-AIS 11 (SHEFFER)  
1 57208U 23091AU  24124.50953724  .00008525  00000+0  52995-3 0  9997
2 57208  97.6179 178.0510 0011037 254.0968 105.9045 15.09844191 46827
SITRO-AIS 29            
1 59052U 24039B   24124.52661585  .00017490  00000+0  68983-3 0  9997
2 59052  97.3890  86.9752 0019399  23.6646 336.5480 15.25446400  9788
SITRO-AIS 30            
1 59053U 24039C   24124.52591120  .00017819  00000+0  70225-3 0  9992
2 59053  97.3888  86.9736 0019527  24.3640 335.8517 15.25466938  9773
SITRO-AIS 31            
1 59054U 24039D   24124.52236092  .00017567  00000+0  69045-3 0  9995
2 59054  97.3888  86.9785 0019376  24.3234 335.8914 15.25562596  9799
SITRO-AIS 33            
1 59055U 24039E   24124.51807500  .00017747  00000+0  69513-3 0  9993
2 59055  97.3892  86.9862 0019177  25.2109 335.0061 15.25679911  9785
SITRO-AIS 35            
1 59056U 24039F   24124.51581527  .00018026  00000+0  70513-3 0  9995
2 59056  97.3890  86.9884 0018987  25.3861 334.8306 15.25723903  9782
SITRO-AIS 32            
1 59057U 24039G   24124.51841197  .00017527  00000+0  68737-3 0  9998
2 59057  97.3890  86.9854 0018953  25.4635 334.7533 15.25643683  9780
SITRO-AIS 34            
1 59058U 24039H   24124.51694336  .00017975  00000+0  70408-3 0  9995
2 59058  97.3892  86.9886 0019150  25.2727 334.9444 15.25677076  9784
SITRO-AIS 36            
1 59059U 24039J   24124.51312320  .00018015  00000+0  70362-3 0  9991
2 59059  97.3890  86.9924 0018720  25.6384 334.5778 15.25778981  9784
SITRO-AIS 49            
1 59060U 24039K   24124.51242344  .00017619  00000+0  68835-3 0  9992
2 59060  97.3890  86.9932 0018695  25.3783 334.8369 15.25774302  9788
SITRO-AIS 50            
1 59061U 24039L   24124.50893437  .00017683  00000+0  68800-3 0  9990
2 59061  97.3890  86.9977 0018671  25.7376 334.4788 15.25913093  9787
SITRO-AIS 51            
1 59062U 24039M   24124.50797656  .00018487  00000+0  71893-3 0  9996
2 59062  97.3891  86.9991 0018611  25.5094 334.7059 15.25921160  9782
SITRO-AIS 52            
1 59063U 24039N   24124.57028889  .00017887  00000+0  69396-3 0  9997
2 59063  97.3892  87.0683 0018448  25.2665 334.9471 15.26009394  9791
SITRO-AIS 25            
1 59066U 24039R   24124.52620736  .00004650  00000+0  45023-3 0  9999
2 59066  95.4008  67.1334 0175349 135.9557 225.5787 14.82050701  9498
SITRO-AIS 26            
1 59067U 24039S   24124.52550571  .00004847  00000+0  46938-3 0  9993
2 59067  95.4007  67.1336 0175168 135.9872 225.5450 14.82057417  9497
